CCSDS_OMM_VERS = 2.0
CREATION_DATE  = 
ORIGINATOR     = 

OBJECT_NAME    = STARLINK-36524
OBJECT_ID      = 2026-008H
CENTER_NAME    = EARTH
REF_FRAME      = TEME
TIME_SYSTEM    = UTC
MEAN_ELEMENT_THEORY = SGP/SGP4

EPOCH          = 2026-01-25T06:00:00.999648
MEAN_MOTION    = 15.91956827
ECCENTRICITY   = .00012279
INCLINATION    = 43.0010
RA_OF_ASC_NODE = 97.5414
ARG_OF_PERICENTER = 275.6584
MEAN_ANOMALY   = 276.7651

EPHEMERIS_TYPE = 0
CLASSIFICATION_TYPE = U
NORAD_CAT_ID   = 67452
ELEMENT_SET_NO = 999
REV_AT_EPOCH   = 281
BSTAR          = -.38433948E-2
MEAN_MOTION_DOT = -.1316811E-1
MEAN_MOTION_DDOT = .49957375E-3

CCSDS_OMM_VERS = 2.0
CREATION_DATE  = 
ORIGINATOR     = 

OBJECT_NAME    = STARLINK-36518
OBJECT_ID      = 2026-008J
CENTER_NAME    = EARTH
REF_FRAME      = TEME
TIME_SYSTEM    = UTC
MEAN_ELEMENT_THEORY = SGP/SGP4

EPOCH          = 2026-01-25T06:00:00.999648
MEAN_MOTION    = 15.94955423
ECCENTRICITY   = .00012827
INCLINATION    = 43.0000
RA_OF_ASC_NODE = 97.2290
ARG_OF_PERICENTER = 274.3903
MEAN_ANOMALY   = 40.4514

EPHEMERIS_TYPE = 0
CLASSIFICATION_TYPE = U
NORAD_CAT_ID   = 67453
ELEMENT_SET_NO = 999
REV_AT_EPOCH   = 283
BSTAR          = -.40259563E-2
MEAN_MOTION_DOT = -.1612761E-1
MEAN_MOTION_DDOT = .74651468E-3

CCSDS_OMM_VERS = 2.0
CREATION_DATE  = 
ORIGINATOR     = 

OBJECT_NAME    = STARLINK-36517
OBJECT_ID      = 2026-008K
CENTER_NAME    = EARTH
REF_FRAME      = TEME
TIME_SYSTEM    = UTC
MEAN_ELEMENT_THEORY = SGP/SGP4

EPOCH          = 2026-01-25T06:00:00.999648
MEAN_MOTION    = 15.92007683
ECCENTRICITY   = .00012455
INCLINATION    = 43.0007
RA_OF_ASC_NODE = 97.5326
ARG_OF_PERICENTER = 271.3663
MEAN_ANOMALY   = 284.4546

EPHEMERIS_TYPE = 0
CLASSIFICATION_TYPE = U
NORAD_CAT_ID   = 67454
ELEMENT_SET_NO = 999
REV_AT_EPOCH   = 283
BSTAR          = -.38662748E-2
MEAN_MOTION_DOT = -.132804E-1
MEAN_MOTION_DDOT = .50765016E-3

CCSDS_OMM_VERS = 2.0
CREATION_DATE  = 
ORIGINATOR     = 

OBJECT_NAME    = STARLINK-36516
OBJECT_ID      = 2026-008L
CENTER_NAME    = EARTH
REF_FRAME      = TEME
TIME_SYSTEM    = UTC
MEAN_ELEMENT_THEORY = SGP/SGP4

EPOCH          = 2026-01-25T06:00:00.999648
MEAN_MOTION    = 15.92143513
ECCENTRICITY   = .0001373
INCLINATION    = 43.0011
RA_OF_ASC_NODE = 97.5159
ARG_OF_PERICENTER = 271.5058
MEAN_ANOMALY   = 291.1629

EPHEMERIS_TYPE = 0
CLASSIFICATION_TYPE = U
NORAD_CAT_ID   = 67455
ELEMENT_SET_NO = 999
REV_AT_EPOCH   = 281
BSTAR          = -.39192599E-2
MEAN_MOTION_DOT = -.1355511E-1
MEAN_MOTION_DDOT = .52773782E-3

CCSDS_OMM_VERS = 2.0
CREATION_DATE  = 
ORIGINATOR     = 

OBJECT_NAME    = STARLINK-36493
OBJECT_ID      = 2026-008M
CENTER_NAME    = EARTH
REF_FRAME      = TEME
TIME_SYSTEM    = UTC
MEAN_ELEMENT_THEORY = SGP/SGP4

EPOCH          = 2026-01-25T06:00:00.999648
MEAN_MOTION    = 15.92047472
ECCENTRICITY   = .00012414
INCLINATION    = 43.0011
RA_OF_ASC_NODE = 97.5286
ARG_OF_PERICENTER = 273.7721
MEAN_ANOMALY   = 283.8015

EPHEMERIS_TYPE = 0
CLASSIFICATION_TYPE = U
NORAD_CAT_ID   = 67456
ELEMENT_SET_NO = 999
REV_AT_EPOCH   = 281
BSTAR          = -.38721416E-2
MEAN_MOTION_DOT = -.133276E-1
MEAN_MOTION_DDOT = .51115484E-3

CCSDS_OMM_VERS = 2.0
CREATION_DATE  = 
ORIGINATOR     = 

OBJECT_NAME    = STARLINK-36529
OBJECT_ID      = 2026-008N
CENTER_NAME    = EARTH
REF_FRAME      = TEME
TIME_SYSTEM    = UTC
MEAN_ELEMENT_THEORY = SGP/SGP4

EPOCH          = 2026-01-25T06:00:00.999648
MEAN_MOTION    = 15.92095131
ECCENTRICITY   = .00013403
INCLINATION    = 43.0010
RA_OF_ASC_NODE = 97.5218
ARG_OF_PERICENTER = 273.6416
MEAN_ANOMALY   = 286.5563

EPHEMERIS_TYPE = 0
CLASSIFICATION_TYPE = U
NORAD_CAT_ID   = 67457
ELEMENT_SET_NO = 999
REV_AT_EPOCH   = 281
BSTAR          = -.38961104E-2
MEAN_MOTION_DOT = -.1344231E-1
MEAN_MOTION_DDOT = .51947934E-3

CCSDS_OMM_VERS = 2.0
CREATION_DATE  = 
ORIGINATOR     = 

OBJECT_NAME    = STARLINK-36528
OBJECT_ID      = 2026-008P
CENTER_NAME    = EARTH
REF_FRAME      = TEME
TIME_SYSTEM    = UTC
MEAN_ELEMENT_THEORY = SGP/SGP4

EPOCH          = 2026-01-25T06:00:00.999648
MEAN_MOTION    = 15.92191782
ECCENTRICITY   = .00011058
INCLINATION    = 43.0011
RA_OF_ASC_NODE = 97.5088
ARG_OF_PERICENTER = 273.5155
MEAN_ANOMALY   = 291.8956

EPHEMERIS_TYPE = 0
CLASSIFICATION_TYPE = U
NORAD_CAT_ID   = 67458
ELEMENT_SET_NO = 999
REV_AT_EPOCH   = 283
BSTAR          = -.39406967E-2
MEAN_MOTION_DOT = -.1366195E-1
MEAN_MOTION_DDOT = .53563206E-3

CCSDS_OMM_VERS = 2.0
CREATION_DATE  = 
ORIGINATOR     = 

OBJECT_NAME    = STARLINK-36546
OBJECT_ID      = 2026-008Q
CENTER_NAME    = EARTH
REF_FRAME      = TEME
TIME_SYSTEM    = UTC
MEAN_ELEMENT_THEORY = SGP/SGP4

EPOCH          = 2026-01-25T06:00:00.999648
MEAN_MOTION    = 15.92251542
ECCENTRICITY   = .00012118
INCLINATION    = 43.0010
RA_OF_ASC_NODE = 97.5001
ARG_OF_PERICENTER = 274.5366
MEAN_ANOMALY   = 294.3227

EPHEMERIS_TYPE = 0
CLASSIFICATION_TYPE = U
NORAD_CAT_ID   = 67459
ELEMENT_SET_NO = 999
REV_AT_EPOCH   = 281
BSTAR          = -.39923529E-2
MEAN_MOTION_DOT = -.138819E-1
MEAN_MOTION_DDOT = .55185551E-3

CCSDS_OMM_VERS = 2.0
CREATION_DATE  = 
ORIGINATOR     = 

OBJECT_NAME    = STARLINK-36523
OBJECT_ID      = 2026-008R
CENTER_NAME    = EARTH
REF_FRAME      = TEME
TIME_SYSTEM    = UTC
MEAN_ELEMENT_THEORY = SGP/SGP4

EPOCH          = 2026-01-25T06:00:00.999648
MEAN_MOTION    = 15.92301151
ECCENTRICITY   = .0001249
INCLINATION    = 43.0011
RA_OF_ASC_NODE = 97.4924
ARG_OF_PERICENTER = 274.0433
MEAN_ANOMALY   = 297.8593

EPHEMERIS_TYPE = 0
CLASSIFICATION_TYPE = U
NORAD_CAT_ID   = 67460
ELEMENT_SET_NO = 999
REV_AT_EPOCH   = 283
BSTAR          = -.40105779E-2
MEAN_MOTION_DOT = -.1398036E-1
MEAN_MOTION_DDOT = .55931844E-3

CCSDS_OMM_VERS = 2.0
CREATION_DATE  = 
ORIGINATOR     = 

OBJECT_NAME    = STARLINK-36522
OBJECT_ID      = 2026-008S
CENTER_NAME    = EARTH
REF_FRAME      = TEME
TIME_SYSTEM    = UTC
MEAN_ELEMENT_THEORY = SGP/SGP4

EPOCH          = 2026-01-25T06:00:00.999648
MEAN_MOTION    = 15.92350073
ECCENTRICITY   = .00012083
INCLINATION    = 43.0012
RA_OF_ASC_NODE = 97.4855
ARG_OF_PERICENTER = 271.6739
MEAN_ANOMALY   = 302.9889

EPHEMERIS_TYPE = 0
CLASSIFICATION_TYPE = U
NORAD_CAT_ID   = 67461
ELEMENT_SET_NO = 999
REV_AT_EPOCH   = 281
BSTAR          = -.4033213E-2
MEAN_MOTION_DOT = -.1409385E-1
MEAN_MOTION_DDOT = .56793847E-3

CCSDS_OMM_VERS = 2.0
CREATION_DATE  = 
ORIGINATOR     = 

OBJECT_NAME    = STARLINK-36504
OBJECT_ID      = 2026-008T
CENTER_NAME    = EARTH
REF_FRAME      = TEME
TIME_SYSTEM    = UTC
MEAN_ELEMENT_THEORY = SGP/SGP4

EPOCH          = 2026-01-25T06:00:00.999648
MEAN_MOTION    = 15.92400412
ECCENTRICITY   = .00012843
INCLINATION    = 43.0012
RA_OF_ASC_NODE = 97.4777
ARG_OF_PERICENTER = 271.2295
MEAN_ANOMALY   = 306.5097

EPHEMERIS_TYPE = 0
CLASSIFICATION_TYPE = U
NORAD_CAT_ID   = 67462
ELEMENT_SET_NO = 999
REV_AT_EPOCH   = 283
BSTAR          = -.40430256E-2
MEAN_MOTION_DOT = -.1416467E-1
MEAN_MOTION_DDOT = .57346059E-3

CCSDS_OMM_VERS = 2.0
CREATION_DATE  = 
ORIGINATOR     = 

OBJECT_NAME    = STARLINK-36505
OBJECT_ID      = 2026-008U
CENTER_NAME    = EARTH
REF_FRAME      = TEME
TIME_SYSTEM    = UTC
MEAN_ELEMENT_THEORY = SGP/SGP4

EPOCH          = 2026-01-25T06:00:00.999648
MEAN_MOTION    = 15.92448518
ECCENTRICITY   = .00013038
INCLINATION    = 43.0017
RA_OF_ASC_NODE = 97.4700
ARG_OF_PERICENTER = 270.3919
MEAN_ANOMALY   = 310.5472

EPHEMERIS_TYPE = 0
CLASSIFICATION_TYPE = U
NORAD_CAT_ID   = 67463
ELEMENT_SET_NO = 999
REV_AT_EPOCH   = 281
BSTAR          = -.40728959E-2
MEAN_MOTION_DOT = -.1430366E-1
MEAN_MOTION_DDOT = .58409264E-3

