STARLINK-36524          
1 67452U 26008H   26025.25001157 -.01316811  49957-3 -38434-2 0  9990
2 67452  43.0010  97.5414 0001227 275.6584 276.7651 15.91956827  2811
STARLINK-36518          
1 67453U 26008J   26025.25001157 -.01612761  74651-3 -40260-2 0  9993
2 67453  43.0000  97.2290 0001282 274.3903  40.4514 15.94955423  2832
STARLINK-36517          
1 67454U 26008K   26025.25001157 -.01328040  50765-3 -38663-2 0  9992
2 67454  43.0007  97.5326 0001245 271.3663 284.4546 15.92007683  2831
STARLINK-36516          
1 67455U 26008L   26025.25001157 -.01355511  52774-3 -39193-2 0  9997
2 67455  43.0011  97.5159 0001373 271.5058 291.1629 15.92143513  2811
STARLINK-36493          
1 67456U 26008M   26025.25001157 -.01332760  51115-3 -38721-2 0  9993
2 67456  43.0011  97.5286 0001241 273.7721 283.8015 15.92047472  2812
STARLINK-36529          
1 67457U 26008N   26025.25001157 -.01344231  51948-3 -38961-2 0  9990
2 67457  43.0010  97.5218 0001340 273.6416 286.5563 15.92095131  2810
STARLINK-36528          
1 67458U 26008P   26025.25001157 -.01366195  53563-3 -39407-2 0  9995
2 67458  43.0011  97.5088 0001105 273.5155 291.8956 15.92191782  2831
STARLINK-36546          
1 67459U 26008Q   26025.25001157 -.01388190  55186-3 -39924-2 0  9992
2 67459  43.0010  97.5001 0001211 274.5366 294.3227 15.92251542  2817
STARLINK-36523          
1 67460U 26008R   26025.25001157 -.01398036  55932-3 -40106-2 0  9997
2 67460  43.0011  97.4924 0001249 274.0433 297.8593 15.92301151  2832
STARLINK-36522          
1 67461U 26008S   26025.25001157 -.01409385  56794-3 -40332-2 0  9996
2 67461  43.0012  97.4855 0001208 271.6739 302.9889 15.92350073  2815
STARLINK-36504          
1 67462U 26008T   26025.25001157 -.01416467  57346-3 -40430-2 0  9999
2 67462  43.0012  97.4777 0001284 271.2295 306.5097 15.92400412  2832
STARLINK-36505          
1 67463U 26008U   26025.25001157 -.01430366  58409-3 -40729-2 0  9996
2 67463  43.0017  97.4700 0001303 270.3919 310.5472 15.92448518  2818
